{
  "type": "FeatureCollection",
  "features": [
    {
      "type": "Feature",
      "properties": {
        "norad_id": 64902,
        "name": "CO3D 2",
        "group": "resource",
        "lat": 13.498374155650412,
        "lon": -125.41408980829726,
        "alt_km": 505.9017965916719,
        "timestamp": "2025-12-02T08:59:32.377690+00:00",
        "meta_object_name": "CO3D 2",
        "meta_object_id": "2025-156D",
        "meta_epoch": "2025-12-01T19:37:31.764000",
        "meta_mean_motion": 15.20212258,
        "meta_eccentricity": 9.93e-05,
        "meta_inclination": 97.4353,
        "meta_ra_of_asc_node": 52.2404,
        "meta_arg_of_pericenter": 118.7701,
        "meta_mean_anomaly": 241.3634,
        "meta_ephemeris_type": 0,
        "meta_classification_type": "U",
        "meta_norad_cat_id": 64902,
        "meta_element_set_no": 999,
        "meta_rev_at_epoch": 1954,
        "meta_bstar": 0.00031387,
        "meta_mean_motion_dot": 6.735e-05,
        "meta_mean_motion_ddot": 0,
        "tle_line1": "1 64902U 25156D   25335.81772875  .00006735  00000+0  31387-3 0  9998",
        "tle_line2": "2 64902  97.4353  52.2404 0000993 118.7701 241.3634 15.20212258 19547"
      },
      "geometry": {
        "type": "Point",
        "coordinates": [
          -125.41408980829726,
          13.498374155650412
        ]
      }
    },
    {
      "type": "Feature",
      "properties": {
        "norad_id": 64903,
        "name": "CO3D 1",
        "group": "resource",
        "lat": 14.377018064088757,
        "lon": -125.29223064260124,
        "alt_km": 505.8393972257727,
        "timestamp": "2025-12-02T08:59:32.377700+00:00",
        "meta_object_name": "CO3D 1",
        "meta_object_id": "2025-156E",
        "meta_epoch": "2025-12-01T21:12:32.372064",
        "meta_mean_motion": 15.20195514,
        "meta_eccentricity": 9.98e-05,
        "meta_inclination": 97.4354,
        "meta_ra_of_asc_node": 52.3054,
        "meta_arg_of_pericenter": 114.4338,
        "meta_mean_anomaly": 245.7002,
        "meta_ephemeris_type": 0,
        "meta_classification_type": "U",
        "meta_norad_cat_id": 64903,
        "meta_element_set_no": 999,
        "meta_rev_at_epoch": 1955,
        "meta_bstar": 0.00045831,
        "meta_mean_motion_dot": 9.865e-05,
        "meta_mean_motion_ddot": 0,
        "tle_line1": "1 64903U 25156E   25335.88370801  .00009865  00000+0  45831-3 0  9995",
        "tle_line2": "2 64903  97.4354  52.3054 0000998 114.4338 245.7002 15.20195514 19558"
      },
      "geometry": {
        "type": "Point",
        "coordinates": [
          -125.29223064260124,
          14.377018064088757
        ]
      }
    },
    {
      "type": "Feature",
      "properties": {
        "norad_id": 66514,
        "name": "SENTINEL-6B",
        "group": "resource",
        "lat": 63.03141910935149,
        "lon": -115.01014650026401,
        "alt_km": 1319.6052072372368,
        "timestamp": "2025-12-02T08:59:32.377710+00:00",
        "meta_object_name": "SENTINEL-6B",
        "meta_object_id": "2025-264A",
        "meta_epoch": "2025-12-02T01:07:30.457056",
        "meta_mean_motion": 12.85877319,
        "meta_eccentricity": 0.0011528,
        "meta_inclination": 66.0388,
        "meta_ra_of_asc_node": 184.7629,
        "meta_arg_of_pericenter": 268.8495,
        "meta_mean_anomaly": 91.1202,
        "meta_ephemeris_type": 0,
        "meta_classification_type": "U",
        "meta_norad_cat_id": 66514,
        "meta_element_set_no": 999,
        "meta_rev_at_epoch": 191,
        "meta_bstar": 0.00032638,
        "meta_mean_motion_dot": 1.9e-07,
        "meta_mean_motion_ddot": 0,
        "tle_line1": "1 66514U 25264A   25336.04688029  .00000019  00000+0  32638-3 0  9991",
        "tle_line2": "2 66514  66.0388 184.7629 0011528 268.8495  91.1202 12.85877319  1918"
      },
      "geometry": {
        "type": "Point",
        "coordinates": [
          -115.01014650026401,
          63.03141910935149
        ]
      }
    }
  ]
}